KUIPER-00080            
1 64827U 25151M   26196.89798782  .00000108  00000+0  43133-4 0  9999
2 64827  51.8987  93.6294 0000472  91.2093 268.8923 14.79898505 54291
KUIPER-00082            
1 64828U 25151N   26196.87766707  .00001575  00000+0  23561-3 0  9991
2 64828  51.9023  81.2700 0000897 104.2558 255.8504 14.79933866 54461
KUIPER-00083            
1 64829U 25151P   26197.07216421  .00001769  00000+0  26094-3 0  9997
2 64829  51.9013  87.8940 0000772 106.7392 253.3655 14.79933747 55575
KUIPER-00084            
1 64830U 25151Q   26196.99379896 -.00008959  00000+0 -11470-2 0  9996
2 64830  51.9018  98.2232 0000982 104.6200 255.4871 14.79959566 54232
KUIPER-00085            
1 64831U 25151R   26197.11402657  .00001645  00000+0  24475-3 0  9997
2 64831  51.9038  80.2722 0000767 105.6229 254.4818 14.79933715 54499
KUIPER-00086            
1 64832U 25151S   26196.90064410  .00001579  00000+0  23608-3 0  9998
2 64832  51.9017  91.1621 0000824 104.6047 255.5007 14.79936065 54322
KUIPER-00087            
1 64833U 25151T   26197.05456931  .00001736  00000+0  25666-3 0  9990
2 64833  51.8998  72.9420 0000702 130.7014 229.4009 14.79937966 54584
KUIPER-00089            
1 64834U 25151U   26197.04918476  .00001755  00000+0  25916-3 0  9996
2 64834  51.9015  77.9890 0000726 105.0577 255.0466 14.79935481 54523
KUIPER-00090            
1 64835U 25151V   26197.05727699 -.00000295  00000+0 -97319-5 0  9991
2 64835  51.8987  70.4589 0000824 112.8903 247.2146 14.79930151 54620
KUIPER-00091            
1 64836U 25151W   26197.05188198  .00001693  00000+0  25105-3 0  9990
2 64836  51.9017  75.4945 0000897 111.0186 249.0872 14.79935237 54559
KUIPER-00092            
1 64837U 25151X   26196.97625183  .00001929  00000+0  28194-3 0  9994
2 64837  51.9013  83.3189 0000733 112.2901 247.8139 14.79937039 55657
KUIPER-00093            
1 64838U 25151Y   26197.10862417  .00000478  00000+0  91698-4 0  9992
2 64838  51.9011  85.2086 0000856 104.4127 255.6931 14.79933758 54427
KUIPER-00094            
1 64839U 25151Z   26196.75207174  .00001683  00000+0  24984-3 0  9998
2 64839  51.9051  41.8761 0001088 111.9348 248.1730 14.79918806 55002
KUIPER-00081            
1 65132U 25171A   26197.29878880  .00000422  00000+0  84375-4 0  9996
2 65132  51.9021 299.3666 0000500  67.7093 292.3922 14.79931263 52084
KUIPER-00088            
1 65133U 25171B   26196.67214202  .00001740  00000+0  25720-3 0  9992
2 65133  51.9012 319.6384 0000529 108.3398 251.7622 14.79937737 51749
KUIPER-00095            
1 65134U 25171C   26197.23395810  .00000346  00000+0  74416-4 0  9999
2 65134  51.8993 297.2021 0000466  59.1628 300.9380 14.79931909 52109
