{"fetched_at":"2026-07-16T17:46:03.568Z","source":"https://celestrak.org/NORAD/elements/gp.php?GROUP=kuiper&FORMAT=JSON","constellation":"kuiper","records":[{"OBJECT_NAME":"KUIPER-00080","OBJECT_ID":"2025-151M","EPOCH":"2026-07-15T21:33:06.147648","CLASSIFICATION_TYPE":"U","MEAN_MOTION":14.79898505,"ECCENTRICITY":0.0000472,"INCLINATION":51.8987,"RA_OF_ASC_NODE":93.6294,"ARG_OF_PERICENTER":91.2093,"MEAN_ANOMALY":268.8923,"EPHEMERIS_TYPE":0,"NORAD_CAT_ID":64827,"ELEMENT_SET_NO":999,"REV_AT_EPOCH":5429,"BSTAR":0.000043133,"MEAN_MOTION_DOT":0.00000108,"MEAN_MOTION_DDOT":0},{"OBJECT_NAME":"KUIPER-00082","OBJECT_ID":"2025-151N","EPOCH":"2026-07-15T21:03:50.434848","CLASSIFICATION_TYPE":"U","MEAN_MOTION":14.79933866,"ECCENTRICITY":0.0000897,"INCLINATION":51.9023,"RA_OF_ASC_NODE":81.27,"ARG_OF_PERICENTER":104.2558,"MEAN_ANOMALY":255.8504,"EPHEMERIS_TYPE":0,"NORAD_CAT_ID":64828,"ELEMENT_SET_NO":999,"REV_AT_EPOCH":5446,"BSTAR":0.00023561,"MEAN_MOTION_DOT":0.00001575,"MEAN_MOTION_DDOT":0},{"OBJECT_NAME":"KUIPER-00083","OBJECT_ID":"2025-151P","EPOCH":"2026-07-16T01:43:54.987744","CLASSIFICATION_TYPE":"U","MEAN_MOTION":14.79933747,"ECCENTRICITY":0.00007725,"INCLINATION":51.9013,"RA_OF_ASC_NODE":87.894,"ARG_OF_PERICENTER":106.7392,"MEAN_ANOMALY":253.3655,"EPHEMERIS_TYPE":0,"NORAD_CAT_ID":64829,"ELEMENT_SET_NO":999,"REV_AT_EPOCH":5557,"BSTAR":0.00026093776,"MEAN_MOTION_DOT":0.00001769,"MEAN_MOTION_DDOT":0},{"OBJECT_NAME":"KUIPER-00084","OBJECT_ID":"2025-151Q","EPOCH":"2026-07-15T23:51:04.230144","CLASSIFICATION_TYPE":"U","MEAN_MOTION":14.79959566,"ECCENTRICITY":0.0000982,"INCLINATION":51.9018,"RA_OF_ASC_NODE":98.2232,"ARG_OF_PERICENTER":104.62,"MEAN_ANOMALY":255.4871,"EPHEMERIS_TYPE":0,"NORAD_CAT_ID":64830,"ELEMENT_SET_NO":999,"REV_AT_EPOCH":5423,"BSTAR":-0.0011469576,"MEAN_MOTION_DOT":-0.00008959,"MEAN_MOTION_DDOT":0},{"OBJECT_NAME":"KUIPER-00085","OBJECT_ID":"2025-151R","EPOCH":"2026-07-16T02:44:11.895648","CLASSIFICATION_TYPE":"U","MEAN_MOTION":14.79933715,"ECCENTRICITY":0.00007679,"INCLINATION":51.9038,"RA_OF_ASC_NODE":80.2722,"ARG_OF_PERICENTER":105.6229,"MEAN_ANOMALY":254.4818,"EPHEMERIS_TYPE":0,"NORAD_CAT_ID":64831,"ELEMENT_SET_NO":999,"REV_AT_EPOCH":5449,"BSTAR":0.00024475242,"MEAN_MOTION_DOT":0.00001645,"MEAN_MOTION_DDOT":0},{"OBJECT_NAME":"KUIPER-00086","OBJECT_ID":"2025-151S","EPOCH":"2026-07-15T21:36:55.650240","CLASSIFICATION_TYPE":"U","MEAN_MOTION":14.79936065,"ECCENTRICITY":0.0000824,"INCLINATION":51.9017,"RA_OF_ASC_NODE":91.1621,"ARG_OF_PERICENTER":104.6047,"MEAN_ANOMALY":255.5007,"EPHEMERIS_TYPE":0,"NORAD_CAT_ID":64832,"ELEMENT_SET_NO":999,"REV_AT_EPOCH":5432,"BSTAR":0.00023608,"MEAN_MOTION_DOT":0.00001579,"MEAN_MOTION_DDOT":0},{"OBJECT_NAME":"KUIPER-00087","OBJECT_ID":"2025-151T","EPOCH":"2026-07-16T01:18:34.788384","CLASSIFICATION_TYPE":"U","MEAN_MOTION":14.79937966,"ECCENTRICITY":0.00007021,"INCLINATION":51.8998,"RA_OF_ASC_NODE":72.942,"ARG_OF_PERICENTER":130.7014,"MEAN_ANOMALY":229.4009,"EPHEMERIS_TYPE":0,"NORAD_CAT_ID":64833,"ELEMENT_SET_NO":999,"REV_AT_EPOCH":5458,"BSTAR":0.00025665714,"MEAN_MOTION_DOT":0.00001736,"MEAN_MOTION_DDOT":0},{"OBJECT_NAME":"KUIPER-00089","OBJECT_ID":"2025-151U","EPOCH":"2026-07-16T01:10:49.563264","CLASSIFICATION_TYPE":"U","MEAN_MOTION":14.79935481,"ECCENTRICITY":0.00007261,"INCLINATION":51.9015,"RA_OF_ASC_NODE":77.989,"ARG_OF_PERICENTER":105.0577,"MEAN_ANOMALY":255.0466,"EPHEMERIS_TYPE":0,"NORAD_CAT_ID":64834,"ELEMENT_SET_NO":999,"REV_AT_EPOCH":5452,"BSTAR":0.00025915808,"MEAN_MOTION_DOT":0.00001755,"MEAN_MOTION_DDOT":0},{"OBJECT_NAME":"KUIPER-00090","OBJECT_ID":"2025-151V","EPOCH":"2026-07-16T01:22:28.731936","CLASSIFICATION_TYPE":"U","MEAN_MOTION":14.79930151,"ECCENTRICITY":0.00008248,"INCLINATION":51.8987,"RA_OF_ASC_NODE":70.4589,"ARG_OF_PERICENTER":112.8903,"MEAN_ANOMALY":247.2146,"EPHEMERIS_TYPE":0,"NORAD_CAT_ID":64835,"ELEMENT_SET_NO":999,"REV_AT_EPOCH":5462,"BSTAR":-0.000009731944,"MEAN_MOTION_DOT":-0.00000295,"MEAN_MOTION_DDOT":0},{"OBJECT_NAME":"KUIPER-00091","OBJECT_ID":"2025-151W","EPOCH":"2026-07-16T01:14:42.603072","CLASSIFICATION_TYPE":"U","MEAN_MOTION":14.79935237,"ECCENTRICITY":0.00008976,"INCLINATION":51.9017,"RA_OF_ASC_NODE":75.4945,"ARG_OF_PERICENTER":111.0186,"MEAN_ANOMALY":249.0872,"EPHEMERIS_TYPE":0,"NORAD_CAT_ID":64836,"ELEMENT_SET_NO":999,"REV_AT_EPOCH":5455,"BSTAR":0.00025104685,"MEAN_MOTION_DOT":0.00001693,"MEAN_MOTION_DDOT":0},{"OBJECT_NAME":"KUIPER-00092","OBJECT_ID":"2025-151X","EPOCH":"2026-07-15T23:25:48.158112","CLASSIFICATION_TYPE":"U","MEAN_MOTION":14.79937039,"ECCENTRICITY":0.00007334,"INCLINATION":51.9013,"RA_OF_ASC_NODE":83.3189,"ARG_OF_PERICENTER":112.2901,"MEAN_ANOMALY":247.8139,"EPHEMERIS_TYPE":0,"NORAD_CAT_ID":64837,"ELEMENT_SET_NO":999,"REV_AT_EPOCH":5565,"BSTAR":0.00028193568,"MEAN_MOTION_DOT":0.00001929,"MEAN_MOTION_DDOT":0},{"OBJECT_NAME":"KUIPER-00093","OBJECT_ID":"2025-151Y","EPOCH":"2026-07-16T02:36:25.128288","CLASSIFICATION_TYPE":"U","MEAN_MOTION":14.79933758,"ECCENTRICITY":0.00008568,"INCLINATION":51.9011,"RA_OF_ASC_NODE":85.2086,"ARG_OF_PERICENTER":104.4127,"MEAN_ANOMALY":255.6931,"EPHEMERIS_TYPE":0,"NORAD_CAT_ID":64838,"ELEMENT_SET_NO":999,"REV_AT_EPOCH":5442,"BSTAR":0.000091698446,"MEAN_MOTION_DOT":0.00000478,"MEAN_MOTION_DDOT":0},{"OBJECT_NAME":"KUIPER-00094","OBJECT_ID":"2025-151Z","EPOCH":"2026-07-15T18:02:58.998336","CLASSIFICATION_TYPE":"U","MEAN_MOTION":14.79918806,"ECCENTRICITY":0.00010887,"INCLINATION":51.9051,"RA_OF_ASC_NODE":41.8761,"ARG_OF_PERICENTER":111.9348,"MEAN_ANOMALY":248.173,"EPHEMERIS_TYPE":0,"NORAD_CAT_ID":64839,"ELEMENT_SET_NO":999,"REV_AT_EPOCH":5500,"BSTAR":0.00024983502,"MEAN_MOTION_DOT":0.00001683,"MEAN_MOTION_DDOT":0},{"OBJECT_NAME":"KUIPER-00081","OBJECT_ID":"2025-171A","EPOCH":"2026-07-16T07:10:15.352320","CLASSIFICATION_TYPE":"U","MEAN_MOTION":14.79931263,"ECCENTRICITY":0.00005008,"INCLINATION":51.9021,"RA_OF_ASC_NODE":299.3666,"ARG_OF_PERICENTER":67.7093,"MEAN_ANOMALY":292.3922,"EPHEMERIS_TYPE":0,"NORAD_CAT_ID":65132,"ELEMENT_SET_NO":999,"REV_AT_EPOCH":5208,"BSTAR":0.00008437511,"MEAN_MOTION_DOT":0.00000422,"MEAN_MOTION_DDOT":0},{"OBJECT_NAME":"KUIPER-00088","OBJECT_ID":"2025-171B","EPOCH":"2026-07-15T16:07:53.070528","CLASSIFICATION_TYPE":"U","MEAN_MOTION":14.79937737,"ECCENTRICITY":0.00005298,"INCLINATION":51.9012,"RA_OF_ASC_NODE":319.6384,"ARG_OF_PERICENTER":108.3398,"MEAN_ANOMALY":251.7622,"EPHEMERIS_TYPE":0,"NORAD_CAT_ID":65133,"ELEMENT_SET_NO":999,"REV_AT_EPOCH":5174,"BSTAR":0.00025719651,"MEAN_MOTION_DOT":0.0000174,"MEAN_MOTION_DDOT":0},{"OBJECT_NAME":"KUIPER-00095","OBJECT_ID":"2025-171C","EPOCH":"2026-07-16T05:36:53.979840","CLASSIFICATION_TYPE":"U","MEAN_MOTION":14.79931909,"ECCENTRICITY":0.00004664,"INCLINATION":51.8993,"RA_OF_ASC_NODE":297.2021,"ARG_OF_PERICENTER":59.1628,"MEAN_ANOMALY":300.938,"EPHEMERIS_TYPE":0,"NORAD_CAT_ID":65134,"ELEMENT_SET_NO":999,"REV_AT_EPOCH":5210,"BSTAR":0.000074416492,"MEAN_MOTION_DOT":0.00000346,"MEAN_MOTION_DDOT":0}]}
